{
 "type": "FeatureCollection",
 "features": [
  {
   "type": "Feature",
   "properties": {
    "name": "GPS trace thật (1 Hz, nhiễu)",
    "stroke": "#cf222e",
    "points": true
   },
   "geometry": {
    "type": "LineString",
    "coordinates": [
     [
      105.84308136258663,
      21.00674311273976
     ],
     [
      105.84315715738822,
      21.006746515387512
     ],
     [
      105.8431605051774,
      21.006793981071503
     ],
     [
      105.8432069504367,
      21.006819063191173
     ],
     [
      105.84324965377111,
      21.00681048763029
     ],
     [
      105.84329121311349,
      21.00685706309761
     ],
     [
      105.84331521309963,
      21.006838864245942
     ],
     [
      105.84332286209249,
      21.00688071032003
     ],
     [
      105.84341630026566,
      21.00688613970134
     ],
     [
      105.84340102783906,
      21.006945375515606
     ],
     [
      105.84346306130885,
      21.006933294110212
     ],
     [
      105.84348685223753,
      21.006921264635885
     ],
     [
      105.84349099779763,
      21.00694159152308
     ],
     [
      105.8435370144078,
      21.006961931793633
     ],
     [
      105.84357548491298,
      21.007012387437744
     ],
     [
      105.84359779721878,
      21.007021245357507
     ],
     [
      105.8436592845669,
      21.00705737202341
     ],
     [
      105.84367566438996,
      21.007024600452407
     ],
     [
      105.8437116799111,
      21.007053845724897
     ],
     [
      105.84375446132624,
      21.007074662490997
     ],
     [
      105.84375906571414,
      21.007110292288733
     ],
     [
      105.84379364750816,
      21.007114212889906
     ],
     [
      105.84386200902473,
      21.00712128079716
     ],
     [
      105.8438780745869,
      21.00712681179838
     ],
     [
      105.84391838132736,
      21.007156378021644
     ],
     [
      105.84393598974543,
      21.007168402634637
     ],
     [
      105.8439774899615,
      21.00718900584147
     ],
     [
      105.8440278255768,
      21.00719619251291
     ],
     [
      105.8440376397769,
      21.00721036469818
     ],
     [
      105.84407177618407,
      21.007236043606575
     ],
     [
      105.84411595583686,
      21.007258450749987
     ],
     [
      105.84414550496291,
      21.007247423146136
     ],
     [
      105.84422051383459,
      21.007275690248267
     ],
     [
      105.84419860589496,
      21.007297710568103
     ],
     [
      105.84425239663297,
      21.007287558925967
     ],
     [
      105.84431018468004,
      21.007300786601725
     ],
     [
      105.84435274602751,
      21.007303914778372
     ],
     [
      105.8443753314301,
      21.00733434549021
     ],
     [
      105.84438424550085,
      21.007339521556244
     ],
     [
      105.84442153627901,
      21.007342385765213
     ],
     [
      105.84447100525846,
      21.007332338185677
     ],
     [
      105.8445040478555,
      21.007352009955422
     ],
     [
      105.84451923033355,
      21.007379936732008
     ],
     [
      105.84456037794894,
      21.007397419809543
     ],
     [
      105.8445920161304,
      21.007404630593456
     ],
     [
      105.84462024566976,
      21.007387026612886
     ],
     [
      105.84468374806383,
      21.007412028163515
     ],
     [
      105.84467067846896,
      21.007425101230577
     ],
     [
      105.84475500549836,
      21.00744975977832
     ],
     [
      105.84476784356028,
      21.007436402593452
     ],
     [
      105.84477466532722,
      21.00741896117774
     ],
     [
      105.84484655012425,
      21.007442982868866
     ],
     [
      105.84488314288083,
      21.007422380178046
     ],
     [
      105.84490559580664,
      21.00742517523791
     ],
     [
      105.84490448442153,
      21.007444184528616
     ],
     [
      105.84496265242448,
      21.007476292741238
     ],
     [
      105.84498746409292,
      21.007428142586257
     ],
     [
      105.84502242642479,
      21.00746103600659
     ],
     [
      105.8450724618925,
      21.00746859005107
     ],
     [
      105.84509446788576,
      21.007464579348554
     ],
     [
      105.84515996776406,
      21.00744640874352
     ],
     [
      105.84517892779027,
      21.00745535446444
     ],
     [
      105.84522165897336,
      21.0074910012955
     ],
     [
      105.84522294726337,
      21.007449247270785
     ],
     [
      105.84531690374313,
      21.0074695859941
     ],
     [
      105.84531283864902,
      21.007465231314576
     ],
     [
      105.84533088053124,
      21.007465348497632
     ],
     [
      105.84539162346492,
      21.00744796029605
     ],
     [
      105.84540212524253,
      21.00746811032107
     ],
     [
      105.84542104153816,
      21.00744241248147
     ],
     [
      105.84548473616682,
      21.007443758629247
     ],
     [
      105.84550606687313,
      21.007451753796968
     ],
     [
      105.84556333252833,
      21.00746693226708
     ],
     [
      105.84556458031842,
      21.00744702101128
     ],
     [
      105.8456028480104,
      21.0074441808215
     ],
     [
      105.84564661478366,
      21.007425382191787
     ],
     [
      105.84569317572787,
      21.007449417340936
     ],
     [
      105.84570961288924,
      21.007402842213796
     ],
     [
      105.84578287459838,
      21.00743343845148
     ],
     [
      105.84580493470568,
      21.007427357379893
     ],
     [
      105.84581494104347,
      21.007440411661683
     ],
     [
      105.84586002864442,
      21.007417849003332
     ],
     [
      105.84585710055325,
      21.00740216231072
     ],
     [
      105.84593080699491,
      21.00739295818257
     ],
     [
      105.84596557078063,
      21.007384550161735
     ],
     [
      105.8459812957312,
      21.00738002464117
     ],
     [
      105.84604439327975,
      21.00737238609928
     ],
     [
      105.84602927010687,
      21.00739241108278
     ],
     [
      105.8460962625988,
      21.007382782542795
     ],
     [
      105.8461281687333,
      21.00735526858762
     ],
     [
      105.84616051403859,
      21.007348021263343
     ],
     [
      105.8461980516349,
      21.007357402895956
     ],
     [
      105.84623873500779,
      21.007359720450864
     ],
     [
      105.84628456841997,
      21.007344180531483
     ],
     [
      105.8462957561693,
      21.007360822832513
     ],
     [
      105.84634111094277,
      21.007356811434846
     ],
     [
      105.84635071929122,
      21.007311839730544
     ],
     [
      105.84640321119161,
      21.007304229052632
     ],
     [
      105.84644346948345,
      21.007307764889
     ],
     [
      105.84643527574664,
      21.00730748432291
     ],
     [
      105.84651071107841,
      21.00731927136487
     ],
     [
      105.84654375281193,
      21.007296783992533
     ],
     [
      105.84655439873848,
      21.007270419565426
     ],
     [
      105.84660318601502,
      21.007290755381746
     ],
     [
      105.84662755578279,
      21.007286857798547
     ],
     [
      105.84666475976172,
      21.007289256278355
     ],
     [
      105.84670311354554,
      21.00727164560767
     ],
     [
      105.84672704414906,
      21.007260947062836
     ],
     [
      105.84675730252059,
      21.00727380094147
     ],
     [
      105.84679205770685,
      21.007271424322678
     ],
     [
      105.84683402487536,
      21.007274519748766
     ],
     [
      105.84686489392591,
      21.007236763716968
     ],
     [
      105.84691169184508,
      21.007237626191714
     ],
     [
      105.84693896457982,
      21.007263230664798
     ],
     [
      105.84697791026196,
      21.007244750981297
     ],
     [
      105.84703943524549,
      21.00723836083084
     ],
     [
      105.8470554232383,
      21.00726878651147
     ],
     [
      105.84707614577253,
      21.00721363536861
     ],
     [
      105.8470836380909,
      21.007245639050396
     ],
     [
      105.84713455990587,
      21.007280537526658
     ]
    ]
   }
  },
  {
   "type": "Feature",
   "properties": {
    "name": "Đường CARLA quy đổi ngược (sai số TB ≈ 2.1 m)",
    "stroke": "#1f6feb",
    "stroke-width": 5
   },
   "geometry": {
    "type": "LineString",
    "coordinates": [
     [
      105.84310577359025,
      21.0067464067553
     ],
     [
      105.8432416227725,
      21.006815437816957
     ],
     [
      105.84337747195475,
      21.006885203461795
     ],
     [
      105.843513321137,
      21.006954628845985
     ],
     [
      105.84364917031925,
      21.00702267387989
     ],
     [
      105.8437850195015,
      21.00708834990736
     ],
     [
      105.84392086868374,
      21.00715073556021
     ],
     [
      105.844056717866,
      21.007208991533673
     ],
     [
      105.84419256704824,
      21.007262374045837
     ],
     [
      105.8443284162305,
      21.007310246765208
     ],
     [
      105.84446426541274,
      21.007352091015207
     ],
     [
      105.84460011459498,
      21.007387514091864
     ],
     [
      105.84473596377724,
      21.007416255561388
     ],
     [
      105.84487181295948,
      21.007438191436577
     ],
     [
      105.84500766214174,
      21.007453336165145
     ],
     [
      105.84514351132398,
      21.007461842398012
     ],
     [
      105.84527936050624,
      21.007463998541343
     ],
     [
      105.84541520968848,
      21.00746022413156
     ],
     [
      105.84555105887073,
      21.00745106310746
     ],
     [
      105.84568690805298,
      21.00743717508741
     ],
     [
      105.84582275723523,
      21.00741932479143
     ],
     [
      105.84595860641748,
      21.007398369777846
     ],
     [
      105.84609445559973,
      21.00737524669111
     ],
     [
      105.84623030478197,
      21.007350956241414
     ],
     [
      105.84636615396423,
      21.007326547156875
     ],
     [
      105.84650200314647,
      21.00730309936572
     ],
     [
      105.84663785232873,
      21.007281706678107
     ],
     [
      105.84677370151097,
      21.007263459245348
     ],
     [
      105.84690955069321,
      21.007249426077784
     ],
     [
      105.84704539987547,
      21.00724063790172
     ]
    ]
   }
  },
  {
   "type": "Feature",
   "properties": {
    "name": "Gốc map (geoReference lat_0/lon_0)",
    "marker": true
   },
   "geometry": {
    "type": "Point",
    "coordinates": [
     105.8431,
     21.00675
    ]
   }
  }
 ]
}